{"type": "FeatureCollection", "features": [{"type": "Feature", "properties": {"norad_id": 24946, "name": "IRIDIUM 33", "group": "iridium-33-debris", "lat": 80.57567464315822, "lon": 84.69946655208389, "alt_km": 765.8848692267602, "timestamp": "2025-12-26T19:22:39.293207+00:00", "meta": {"OBJECT_NAME": "IRIDIUM 33", "OBJECT_ID": "1997-051C", "EPOCH": "2025-12-26T13:58:46.150176", "MEAN_MOTION": 14.350468, "ECCENTRICITY": 0.00086556, "INCLINATION": 86.3856, "RA_OF_ASC_NODE": 62.4104, "ARG_OF_PERICENTER": 156.1022, "MEAN_ANOMALY": 204.0578, "EPHEMERIS_TYPE": 0, "CLASSIFICATION_TYPE": "U", "NORAD_CAT_ID": 24946, "ELEMENT_SET_NO": 999, "REV_AT_EPOCH": 48033, "BSTAR": 0.00011738572, "MEAN_MOTION_DOT": 3.54e-06, "MEAN_MOTION_DDOT": 0}, "tle": {"line1": "1 24946U 97051C   25360.58247859  .00000354  00000+0  11739-3 0  9996", "line2": "2 24946  86.3856  62.4104 0008655 156.1022 204.0578 14.35046800480336"}}, "geometry": {"type": "Point", "coordinates": [84.69946655208389, 80.57567464315822]}}, {"type": "Feature", "properties": {"norad_id": 33773, "name": "IRIDIUM 33 DEB", "group": "iridium-33-debris", "lat": 84.2106835444113, "lon": -163.7622823573988, "alt_km": 730.9131989013877, "timestamp": "2025-12-26T19:22:39.293260+00:00", "meta": {"OBJECT_NAME": "IRIDIUM 33 DEB", "OBJECT_ID": "1997-051L", "EPOCH": "2025-12-26T13:56:59.891136", "MEAN_MOTION": 14.43285398, "ECCENTRICITY": 0.00133381, "INCLINATION": 86.3996, "RA_OF_ASC_NODE": 54.7233, "ARG_OF_PERICENTER": 106.7873, "MEAN_ANOMALY": 253.4792, "EPHEMERIS_TYPE": 0, "CLASSIFICATION_TYPE": "U", "NORAD_CAT_ID": 33773, "ELEMENT_SET_NO": 999, "REV_AT_EPOCH": 88547, "BSTAR": 0.00030304424, "MEAN_MOTION_DOT": 1.041e-05, "MEAN_MOTION_DDOT": 0}, "tle": {"line1": "1 33773U 97051L   25360.58124874  .00001041  00000+0  30304-3 0  9998", "line2": "2 33773  86.3996  54.7233 0013338 106.7873 253.4792 14.43285398885471"}}, "geometry": {"type": "Point", "coordinates": [-163.7622823573988, 84.2106835444113]}}, {"type": "Feature", "properties": {"norad_id": 33775, "name": "IRIDIUM 33 DEB", "group": "iridium-33-debris", "lat": 85.62025964831201, "lon": 99.70828538877042, "alt_km": 736.1705814404922, "timestamp": "2025-12-26T19:22:39.293279+00:00", "meta": {"OBJECT_NAME": "IRIDIUM 33 DEB", "OBJECT_ID": "1997-051N", "EPOCH": "2025-12-26T14:30:38.060352", "MEAN_MOTION": 14.41497589, "ECCENTRICITY": 0.00153846, "INCLINATION": 86.3623, "RA_OF_ASC_NODE": 43.6333, "ARG_OF_PERICENTER": 113.6049, "MEAN_ANOMALY": 2.3398, "EPHEMERIS_TYPE": 0, "CLASSIFICATION_TYPE": "U", "NORAD_CAT_ID": 33775, "ELEMENT_SET_NO": 999, "REV_AT_EPOCH": 88340, "BSTAR": 0.00033397712, "MEAN_MOTION_DOT": 1.105e-05, "MEAN_MOTION_DDOT": 0}, "tle": {"line1": "1 33775U 97051N   25360.60460718  .00001105  00000+0  33398-3 0  9990", "line2": "2 33775  86.3623  43.6333 0015384 113.6049   2.3398 14.41497589883402"}}, "geometry": {"type": "Point", "coordinates": [99.70828538877042, 85.62025964831201]}}, {"type": "Feature", "properties": {"norad_id": 33776, "name": "IRIDIUM 33 DEB", "group": "iridium-33-debris", "lat": 26.153808301442456, "lon": -106.9020027740103, "alt_km": 752.1871291358702, "timestamp": "2025-12-26T19:22:39.293294+00:00", "meta": {"OBJECT_NAME": "IRIDIUM 33 DEB", "OBJECT_ID": "1997-051P", "EPOCH": "2025-12-26T12:02:11.918976", "MEAN_MOTION": 14.38258011, "ECCENTRICITY": 0.00158686, "INCLINATION": 86.4031, "RA_OF_ASC_NODE": 74.9965, "ARG_OF_PERICENTER": 146.926, "MEAN_ANOMALY": 224.0176, "EPHEMERIS_TYPE": 0, "CLASSIFICATION_TYPE": "U", "NORAD_CAT_ID": 33776, "ELEMENT_SET_NO": 999, "REV_AT_EPOCH": 88280, "BSTAR": 0.00026210781, "MEAN_MOTION_DOT": 8.17e-06, "MEAN_MOTION_DDOT": 0}, "tle": {"line1": "1 33776U 97051P   25360.50152684  .00000817  00000+0  26211-3 0  9995", "line2": "2 33776  86.4031  74.9965 0015868 146.9260 224.0176 14.38258011882807"}}, "geometry": {"type": "Point", "coordinates": [-106.9020027740103, 26.153808301442456]}}, {"type": "Feature", "properties": {"norad_id": 33777, "name": "IRIDIUM 33 DEB", "group": "iridium-33-debris", "lat": 77.51721371404331, "lon": -167.54625278379015, "alt_km": 699.7923629187908, "timestamp": "2025-12-26T19:22:39.293307+00:00", "meta": {"OBJECT_NAME": "IRIDIUM 33 DEB", "OBJECT_ID": "1997-051Q", "EPOCH": "2025-12-26T13:57:40.984704", "MEAN_MOTION": 14.55708292, "ECCENTRICITY": 0.00064831, "INCLINATION": 86.3775, "RA_OF_ASC_NODE": 29.1803, "ARG_OF_PERICENTER": 191.6529, "MEAN_ANOMALY": 168.453, "EPHEMERIS_TYPE": 0, "CLASSIFICATION_TYPE": "U", "NORAD_CAT_ID": 33777, "ELEMENT_SET_NO": 999, "REV_AT_EPOCH": 88735, "BSTAR": 0.00083346097, "MEAN_MOTION_DOT": 3.664e-05, "MEAN_MOTION_DDOT": 0}, "tle": {"line1": "1 33777U 97051Q   25360.58172436  .00003664  00000+0  83346-3 0  9996", "line2": "2 33777  86.3775  29.1803 0006483 191.6529 168.4530 14.55708292887353"}}, "geometry": {"type": "Point", "coordinates": [-167.54625278379015, 77.51721371404331]}}, {"type": "Feature", "properties": {"norad_id": 33850, "name": "IRIDIUM 33 DEB", "group": "iridium-33-debris", "lat": 76.58637369874606, "lon": -171.43487654980868, "alt_km": 735.0305472515483, "timestamp": "2025-12-26T19:22:39.293319+00:00", "meta": {"OBJECT_NAME": "IRIDIUM 33 DEB", "OBJECT_ID": "1997-051T", "EPOCH": "2025-12-26T12:56:59.127072", "MEAN_MOTION": 14.42181449, "ECCENTRICITY": 0.00133444, "INCLINATION": 86.3409, "RA_OF_ASC_NODE": 24.245, "ARG_OF_PERICENTER": 120.0989, "MEAN_ANOMALY": 33.2041, "EPHEMERIS_TYPE": 0, "CLASSIFICATION_TYPE": "U", "NORAD_CAT_ID": 33850, "ELEMENT_SET_NO": 999, "REV_AT_EPOCH": 88351, "BSTAR": 0.00043866705, "MEAN_MOTION_DOT": 1.465e-05, "MEAN_MOTION_DDOT": 0}, "tle": {"line1": "1 33850U 97051T   25360.53957323  .00001465  00000+0  43867-3 0  9990", "line2": "2 33850  86.3409  24.2450 0013344 120.0989  33.2041 14.42181449883518"}}, "geometry": {"type": "Point", "coordinates": [-171.43487654980868, 76.58637369874606]}}, {"type": "Feature", "properties": {"norad_id": 33853, "name": "IRIDIUM 33 DEB", "group": "iridium-33-debris", "lat": 73.54947358987681, "lon": 149.9347526265025, "alt_km": 877.4970802866565, "timestamp": "2025-12-26T19:22:39.293332+00:00", "meta": {"OBJECT_NAME": "IRIDIUM 33 DEB", "OBJECT_ID": "1997-051W", "EPOCH": "2025-12-26T10:52:30.840672", "MEAN_MOTION": 13.99126555, "ECCENTRICITY": 0.02078029, "INCLINATION": 86.0001, "RA_OF_ASC_NODE": 343.7973, "ARG_OF_PERICENTER": 193.5253, "MEAN_ANOMALY": 291.4961, "EPHEMERIS_TYPE": 0, "CLASSIFICATION_TYPE": "U", "NORAD_CAT_ID": 33853, "ELEMENT_SET_NO": 999, "REV_AT_EPOCH": 85537, "BSTAR": 0.0011675323, "MEAN_MOTION_DOT": 2.052e-05, "MEAN_MOTION_DDOT": 0}, "tle": {"line1": "1 33853U 97051W   25360.45313473  .00002052  00000+0  11675-2 0  9990", "line2": "2 33853  86.0001 343.7973 0207802 193.5253 291.4961 13.99126555855378"}}, "geometry": {"type": "Point", "coordinates": [149.9347526265025, 73.54947358987681]}}, {"type": "Feature", "properties": {"norad_id": 33860, "name": "IRIDIUM 33 DEB", "group": "iridium-33-debris", "lat": -55.374914049104454, "lon": -153.73422343913145, "alt_km": 674.3895838756816, "timestamp": "2025-12-26T19:22:39.293345+00:00", "meta": {"OBJECT_NAME": "IRIDIUM 33 DEB", "OBJECT_ID": "1997-051AD", "EPOCH": "2025-12-26T12:27:09.911808", "MEAN_MOTION": 14.67533619, "ECCENTRICITY": 0.00059571, "INCLINATION": 86.3827, "RA_OF_ASC_NODE": 21.137, "ARG_OF_PERICENTER": 302.6751, "MEAN_ANOMALY": 209.4823, "EPHEMERIS_TYPE": 0, "CLASSIFICATION_TYPE": "U", "NORAD_CAT_ID": 33860, "ELEMENT_SET_NO": 999, "REV_AT_EPOCH": 88924, "BSTAR": 0.0011675944, "MEAN_MOTION_DOT": 6.644e-05, "MEAN_MOTION_DDOT": 0}, "tle": {"line1": "1 33860U 97051AD  25360.51886472  .00006644  00000+0  11676-2 0  9991", "line2": "2 33860  86.3827  21.1370 0005957 302.6751 209.4823 14.67533619889244"}}, "geometry": {"type": "Point", "coordinates": [-153.73422343913145, -55.374914049104454]}}, {"type": "Feature", "properties": {"norad_id": 33862, "name": "IRIDIUM 33 DEB", "group": "iridium-33-debris", "lat": 18.573784230909645, "lon": 32.53444876473537, "alt_km": 625.9202548551757, "timestamp": "2025-12-26T19:22:39.293356+00:00", "meta": {"OBJECT_NAME": "IRIDIUM 33 DEB", "OBJECT_ID": "1997-051AF", "EPOCH": "2025-12-26T14:56:06.808992", "MEAN_MOTION": 14.69701742, "ECCENTRICITY": 0.00518976, "INCLINATION": 86.4083, "RA_OF_ASC_NODE": 31.4067, "ARG_OF_PERICENTER": 22.4772, "MEAN_ANOMALY": 97.5758, "EPHEMERIS_TYPE": 0, "CLASSIFICATION_TYPE": "U", "NORAD_CAT_ID": 33862, "ELEMENT_SET_NO": 999, "REV_AT_EPOCH": 89027, "BSTAR": 0.0015611165, "MEAN_MOTION_DOT": 9.518e-05, "MEAN_MOTION_DDOT": 0}, "tle": {"line1": "1 33862U 97051AF  25360.62230103  .00009518  00000+0  15611-2 0  9995", "line2": "2 33862  86.4083  31.4067 0051897  22.4772  97.5758 14.69701742890276"}}, "geometry": {"type": "Point", "coordinates": [32.53444876473537, 18.573784230909645]}}, {"type": "Feature", "properties": {"norad_id": 33866, "name": "IRIDIUM 33 DEB", "group": "iridium-33-debris", "lat": 3.0902578466823596, "lon": 87.28433795349991, "alt_km": 842.380958987339, "timestamp": "2025-12-26T19:22:39.293369+00:00", "meta": {"OBJECT_NAME": "IRIDIUM 33 DEB", "OBJECT_ID": "1997-051AK", "EPOCH": "2025-12-26T06:00:43.674336", "MEAN_MOTION": 14.25315918, "ECCENTRICITY": 0.01152742, "INCLINATION": 86.2997, "RA_OF_ASC_NODE": 87.3198, "ARG_OF_PERICENTER": 118.5793, "MEAN_ANOMALY": 270.1399, "EPHEMERIS_TYPE": 0, "CLASSIFICATION_TYPE": "U", "NORAD_CAT_ID": 33866, "ELEMENT_SET_NO": 999, "REV_AT_EPOCH": 87003, "BSTAR": 0.0006025218, "MEAN_MOTION_DOT": 1.54e-05, "MEAN_MOTION_DDOT": 0}, "tle": {"line1": "1 33866U 97051AK  25360.25050549  .00001540  00000+0  60252-3 0  9991", "line2": "2 33866  86.2997  87.3198 0115274 118.5793 270.1399 14.25315918870037"}}, "geometry": {"type": "Point", "coordinates": [87.28433795349991, 3.0902578466823596]}}]}